NORAD_CAT_ID,OBJECT_NAME,OBJECT_TYPE,EPOCH,MEAN_MOTION,ECCENTRICITY,INCLINATION,RA_OF_ASC_NODE,ARG_OF_PERICENTER,MEAN_ANOMALY,BSTAR,MEAN_MOTION_DOT,MEAN_MOTION_DDOT,TLE_LINE0,TLE_LINE1,TLE_LINE2,SEMIMAJOR_AXIS,PERIOD,APOGEE,PERIGEE,DECAYED
53438.0,STARLINK-4526,PAYLOAD,2023-02-28 21:40:51,15.08807656,5.58e-05,53.2161,23.3496,83.6618,276.4437,-0.0014799,-0.00023741,0.0,0 STARLINK-4526,1 53438U 22097BC  23059.90337428 -.00023741  00000-0 -14799-2 0  9999,2 53438  53.2161  23.3496 0000558  83.6618 276.4437 15.08807656 32015,6917.979,95.44,540.23,539.458,0.0
53438.0,STARLINK-4526,PAYLOAD,2023-03-01 08:48:34,15.08808553,0.0001056,53.2166,21.2672,124.8049,235.3042,-8.4719e-06,-4.22e-06,0.0,0 STARLINK-4526,1 53438U 22097BC  23060.36706578 -.00000422  00000-0 -84719-5 0  9990,2 53438  53.2166  21.2672 0001056 124.8049 235.3042 15.08808553 31598,6917.977,95.44,540.572,539.111,0.0
53438.0,STARLINK-4526,PAYLOAD,2023-03-01 21:31:40,15.08829956,0.0001098,53.2168,18.8886,132.4126,227.6959,0.0015104,0.00023825,0.0,0 STARLINK-4526,1 53438U 22097BC  23060.89699539  .00023825  00000-0  15104-2 0  9995,2 53438  53.2168  18.8886 0001098 132.4126 227.6959 15.08829956 32161,6917.911,95.438,540.536,539.017,0.0
53438.0,STARLINK-4526,PAYLOAD,2023-03-02 03:53:12,15.08859933,0.0001103,53.2165,17.6992,128.6614,231.4477,0.0021531,0.00034164,0.0,0 STARLINK-4526,1 53438U 22097BC  23061.16195268  .00034164  00000-0  21531-2 0  9995,2 53438  53.2165  17.6992 0001103 128.6614 231.4477 15.08859933 31715,6917.819,95.436,540.447,538.921,0.0
53438.0,STARLINK-4526,PAYLOAD,2023-03-03 06:54:45,15.08886512,0.000109,53.217,12.6446,124.9885,235.121,0.0023902,0.00038006,0.0,0 STARLINK-4526,1 53438U 22097BC  23062.28802596  .00038006  00000-0  23902-2 0  9991,2 53438  53.2170  12.6446 0001090 124.9885 235.1210 15.08886512 31881,6917.738,95.435,540.357,538.849,0.0
53438.0,STARLINK-4526,PAYLOAD,2023-03-04 06:45:31,15.08900371,0.0001,53.2165,8.1836,97.1268,262.9838,0.0027834,0.00044362,0.0,0 STARLINK-4526,1 53438U 22097BC  23063.28161484  .00044362  00000-0  27834-2 0  9996,2 53438  53.2165   8.1836 0001000  97.1268 262.9838 15.08900371 32037,6917.696,95.434,540.253,538.869,0.0
53438.0,STARLINK-4526,PAYLOAD,2023-03-05 08:11:42,15.08860779,9.32e-05,53.2161,3.4256,73.0194,287.09,0.002545,0.00040471,0.0,0 STARLINK-4526,1 53438U 22097BC  23064.34146617  .00040471  00000-0  25450-2 0  9994,2 53438  53.2161   3.4256 0000932  73.0194 287.0900 15.08860779 32193,6917.817,95.436,540.327,539.037,0.0
53438.0,STARLINK-4526,PAYLOAD,2023-03-06 03:16:20,15.0888315,9.86e-05,53.2161,359.8578,88.0937,272.0168,0.0037125,0.00059364,0.0,0 STARLINK-4526,1 53438U 22097BC  23065.13634766  .00059364  00000-0  37125-2 0  9992,2 53438  53.2161 359.8578 0000986  88.0937 272.0168 15.08883150 32310,6917.748,95.435,540.296,538.931,0.0
53438.0,STARLINK-4526,PAYLOAD,2023-03-06 19:10:12,15.08848257,0.0001666,53.2173,356.8861,72.5758,287.5416,0.0030295,0.00048268,0.0,0 STARLINK-4526,1 53438U 22097BC  23065.79875912  .00048268  00000-0  30295-2 0  9996,2 53438  53.2173 356.8861 0001666  72.5758 287.5416 15.08848257 32417,6917.855,95.437,540.873,538.568,0.0
53438.0,STARLINK-4526,PAYLOAD,2023-03-07 04:42:31,15.08844865,0.0001451,53.2165,355.0979,76.0089,284.1065,0.0010296,0.00016138,0.0,0 STARLINK-4526,1 53438U 22097BC  23066.19619974  .00016138  00000-0  10296-2 0  9995,2 53438  53.2165 355.0979 0001451  76.0089 284.1065 15.08844865 32477,6917.866,95.437,540.734,538.727,0.0
53438.0,STARLINK-4526,PAYLOAD,2023-03-08 04:33:17,15.08886389,0.0001428,53.2155,350.6375,84.5097,275.6058,0.0015379,0.00024304,0.0,0 STARLINK-4526,1 53438U 22097BC  23067.18978530  .00024304  00000-0  15379-2 0  9992,2 53438  53.2155 350.6375 0001428  84.5097 275.6058 15.08886389 33110,6917.739,95.435,540.591,538.616,0.0
53438.0,STARLINK-4526,PAYLOAD,2023-03-08 23:37:55,15.0884736,0.00015,53.2162,347.0696,120.2143,239.8998,0.0017582,0.0002781,0.0,0 STARLINK-4526,1 53438U 22097BC  23067.98467041  .00027810  00000-0  17582-2 0  9993,2 53438  53.2162 347.0696 0001500 120.2143 239.8998 15.08847360 32744,6917.858,95.437,540.761,538.685,0.0
53438.0,STARLINK-4526,PAYLOAD,2023-03-09 21:53:19,15.08848538,0.0001456,53.2155,342.9081,108.8612,251.2538,0.00066405,0.00010299,0.0,0 STARLINK-4526,1 53438U 22097BC  23068.91203030  .00010299  00000-0  66405-3 0  9995,2 53438  53.2155 342.9081 0001456 108.8612 251.2538 15.08848538 33377,6917.854,95.437,540.727,538.712,0.0
53438.0,STARLINK-4526,PAYLOAD,2023-03-10 01:04:05,15.08861657,0.000122,53.2162,342.3132,90.1358,269.9774,0.0022217,0.00035269,0.0,0 STARLINK-4526,1 53438U 22097BC  23069.04451084  .00035269  00000-0  22217-2 0  9990,2 53438  53.2162 342.3132 0001220  90.1358 269.9774 15.08861657 32908,6917.814,95.436,540.523,538.835,0.0
53438.0,STARLINK-4526,PAYLOAD,2023-03-10 10:36:24,15.08851954,0.0001218,53.2164,340.5297,92.8249,267.2883,0.00061086,9.45e-05,0.0,0 STARLINK-4526,1 53438U 22097BC  23069.44194598  .00009450  00000-0  61086-3 0  9999,2 53438  53.2164 340.5297 0001218  92.8249 267.2883 15.08851954 32964,6917.844,95.437,540.551,538.866,0.0
53438.0,STARLINK-4526,PAYLOAD,2023-03-10 18:33:20,15.08795665,0.0001054,53.2152,339.042,67.1378,292.9725,-0.0013753,-0.00022082,0.0,0 STARLINK-4526,1 53438U 22097BC  23069.77315963 -.00022082  00000-0 -13753-2 0  9991,2 53438  53.2152 339.0420 0001054  67.1378 292.9725 15.08795665 33011,6918.016,95.44,540.61,539.152,0.0
53438.0,STARLINK-4526,PAYLOAD,2023-03-10 21:44:07,15.08810086,0.0001763,53.2155,338.4485,78.5749,281.5441,-0.00054525,-8.948e-05,0.0,0 STARLINK-4526,1 53438U 22097BC  23069.90564398 -.00008948  00000-0 -54525-3 0  9992,2 53438  53.2155 338.4485 0001763  78.5749 281.5441 15.08810086 33523,6917.972,95.439,541.056,538.617,0.0
53438.0,STARLINK-4526,PAYLOAD,2023-03-11 00:54:53,15.08816746,0.0001039,53.2151,337.8533,74.6545,285.4562,-0.00022711,-3.898e-05,0.0,0 STARLINK-4526,1 53438U 22097BC  23070.03812380 -.00003898  00000-0 -22711-3 0  9996,2 53438  53.2151 337.8533 0001039  74.6545 285.4562 15.08816746 33057,6917.951,95.439,540.535,539.098,0.0
53438.0,STARLINK-4526,PAYLOAD,2023-03-12 02:21:04,15.08867157,0.0001085,53.2156,333.0948,71.0932,289.0177,0.0012697,0.00019992,0.0,0 STARLINK-4526,1 53438U 22097BC  23071.09796620  .00019992  00000-0  12697-2 0  9992,2 53438  53.2156 333.0948 0001085  71.0932 289.0177 15.08867157 33214,6917.797,95.436,540.413,538.912,0.0
53438.0,STARLINK-4526,PAYLOAD,2023-03-13 03:47:13,15.08855767,0.0001402,53.2162,328.334,71.447,288.6674,0.00033359,5.027e-05,0.0,0 STARLINK-4526,1 53438U 22097BC  23072.15778992  .00005027  00000-0  33359-3 0  9995,2 53438  53.2162 328.3340 0001402  71.4470 288.6674 15.08855767 33376,6917.832,95.437,540.667,538.727,0.0
53438.0,STARLINK-4526,PAYLOAD,2023-03-14 02:02:38,15.08823385,0.000109,53.2162,324.1708,111.3444,248.7665,-0.00037455,-6.241e-05,0.0,0 STARLINK-4526,1 53438U 22097BC  23073.08516815 -.00006241  00000-0 -37455-3 0  9994,2 53438  53.2162 324.1708 0001090 111.3444 248.7665 15.08823385 34005,6917.931,95.439,540.55,539.042,0.0
53438.0,STARLINK-4526,PAYLOAD,2023-03-14 22:42:39,15.08847002,9.36e-05,53.2157,320.3073,110.1195,249.9898,0.00025981,3.85e-05,0.0,0 STARLINK-4526,1 53438U 22097BC  23073.94628631  .00003850  00000-0  25981-3 0  9991,2 53438  53.2157 320.3073 0000936 110.1195 249.9898 15.08847002 33642,6917.859,95.437,540.371,539.076,0.0
53438.0,STARLINK-4526,PAYLOAD,2023-03-15 20:58:03,15.08845889,8.8e-05,53.2146,316.1452,104.4718,255.6371,0.0002358,3.468e-05,0.0,0 STARLINK-4526,1 53438U 22097BC  23074.87364866  .00003468  00000-0  23580-3 0  9999,2 53438  53.2146 316.1452 0000880 104.4718 255.6371 15.08845889 33785,6917.862,95.437,540.336,539.119,0.0
53438.0,STARLINK-4526,PAYLOAD,2023-03-15 22:33:26,15.08849539,9.72e-05,53.2149,315.8471,93.6152,266.4951,0.0003248,4.886e-05,0.0,0 STARLINK-4526,1 53438U 22097BC  23074.93988832  .00004886  00000-0  32480-3 0  9995,2 53438  53.2149 315.8471 0000972  93.6152 266.4951 15.08849539 34284,6917.851,95.437,540.389,539.044,0.0
53438.0,STARLINK-4526,PAYLOAD,2023-03-16 01:44:12,15.08855048,0.0001048,53.2152,315.2509,99.3232,260.7879,0.00042461,6.479e-05,0.0,0 STARLINK-4526,1 53438U 22097BC  23075.07236590  .00006479  00000-0  42461-3 0  9998,2 53438  53.2152 315.2509 0001048  99.3232 260.7879 15.08855048 34302,6917.834,95.437,540.424,538.974,0.0
53438.0,STARLINK-4526,PAYLOAD,2023-03-16 20:48:51,15.08826992,0.0001045,53.2148,311.6832,84.8235,275.2876,-6.1147e-05,-1.26e-05,0.0,0 STARLINK-4526,1 53438U 22097BC  23075.86726046 -.00001260  00000-0 -61147-4 0  9993,2 53438  53.2148 311.6832 0001045  84.8235 275.2876 15.08826992 34422,6917.92,95.438,540.508,539.062,0.0
53438.0,STARLINK-4526,PAYLOAD,2023-03-16 22:24:14,15.08828533,0.0001026,53.2149,311.3858,84.4997,275.6112,-2.3919e-05,-6.68e-06,0.0,0 STARLINK-4526,1 53438U 22097BC  23075.93350046 -.00000668  00000-0 -23919-4 0  9990,2 53438  53.2149 311.3858 0001026  84.4997 275.6112 15.08828533 33944,6917.915,95.438,540.49,539.071,0.0
53438.0,STARLINK-4526,PAYLOAD,2023-03-17 11:07:19,15.08837704,0.0001032,53.2147,309.0065,76.4446,283.6661,0.00014364,1.999e-05,0.0,0 STARLINK-4526,1 53438U 22097BC  23076.46342010  .00001999  00000-0  14364-3 0  9990,2 53438  53.2147 309.0065 0001032  76.4446 283.6661 15.08837704 34515,6917.887,95.438,540.466,539.038,0.0
53438.0,STARLINK-4526,PAYLOAD,2023-03-17 17:28:51,15.08846751,0.0001137,53.2149,307.8176,76.2712,283.8407,0.00042227,6.44e-05,0.0,0 STARLINK-4526,1 53438U 22097BC  23076.72837841  .00006440  00000-0  42227-3 0  9995,2 53438  53.2149 307.8176 0001137  76.2712 283.8407 15.08846751 34068,6917.86,95.437,540.511,538.938,0.0
53438.0,STARLINK-4526,PAYLOAD,2023-03-18 10:58:06,15.08843575,0.0001372,53.2145,304.548,78.5177,281.5969,0.0001799,2.577e-05,0.0,0 STARLINK-4526,1 53438U 22097BC  23077.45701850  .00002577  00000-0  17990-3 0  9992,2 53438  53.2145 304.5480 0001372  78.5177 281.5969 15.08843575 34178,6917.869,95.437,540.684,538.785,0.0
